CCSDS_OMM_VERS = 2.0
CREATION_DATE  = 
ORIGINATOR     = 

OBJECT_NAME    = CZ-2C R/B
OBJECT_ID      = 2022-132E
CENTER_NAME    = EARTH
REF_FRAME      = TEME
TIME_SYSTEM    = UTC
MEAN_ELEMENT_THEORY = SGP/SGP4

EPOCH          = 2026-02-21T11:22:59.820672
MEAN_MOTION    = 15.60343936
ECCENTRICITY   = .00201722
INCLINATION    = 97.2965
RA_OF_ASC_NODE = 55.3191
ARG_OF_PERICENTER = 143.8618
MEAN_ANOMALY   = 216.4007

EPHEMERIS_TYPE = 0
CLASSIFICATION_TYPE = U
NORAD_CAT_ID   = 54039
ELEMENT_SET_NO = 999
REV_AT_EPOCH   = 18784
BSTAR          = .53264031E-3
MEAN_MOTION_DOT = .44066E-3
MEAN_MOTION_DDOT = 0

CCSDS_OMM_VERS = 2.0
CREATION_DATE  = 
ORIGINATOR     = 

OBJECT_NAME    = GSLV R/B
OBJECT_ID      = 2022-138AN
CENTER_NAME    = EARTH
REF_FRAME      = TEME
TIME_SYSTEM    = UTC
MEAN_ELEMENT_THEORY = SGP/SGP4

EPOCH          = 2026-02-21T17:47:54.319488
MEAN_MOTION    = 14.96643669
ECCENTRICITY   = .0020704
INCLINATION    = 87.3881
RA_OF_ASC_NODE = 171.6986
ARG_OF_PERICENTER = 203.9815
MEAN_ANOMALY   = 156.0454

EPHEMERIS_TYPE = 0
CLASSIFICATION_TYPE = U
NORAD_CAT_ID   = 54149
ELEMENT_SET_NO = 999
REV_AT_EPOCH   = 18154
BSTAR          = .30061E-3
MEAN_MOTION_DOT = .3468E-4
MEAN_MOTION_DDOT = 0

CCSDS_OMM_VERS = 2.0
CREATION_DATE  = 
ORIGINATOR     = 

OBJECT_NAME    = XRISM
OBJECT_ID      = 2023-137A
CENTER_NAME    = EARTH
REF_FRAME      = TEME
TIME_SYSTEM    = UTC
MEAN_ELEMENT_THEORY = SGP/SGP4

EPOCH          = 2026-02-21T07:52:38.149248
MEAN_MOTION    = 15.11281678
ECCENTRICITY   = .00082681
INCLINATION    = 31.0033
RA_OF_ASC_NODE = 29.4689
ARG_OF_PERICENTER = 236.1766
MEAN_ANOMALY   = 123.8086

EPHEMERIS_TYPE = 0
CLASSIFICATION_TYPE = U
NORAD_CAT_ID   = 57800
ELEMENT_SET_NO = 999
REV_AT_EPOCH   = 13531
BSTAR          = .31375868E-3
MEAN_MOTION_DOT = .5513E-4
MEAN_MOTION_DDOT = 0

CCSDS_OMM_VERS = 2.0
CREATION_DATE  = 
ORIGINATOR     = 

OBJECT_NAME    = ACS3
OBJECT_ID      = 2024-077B
CENTER_NAME    = EARTH
REF_FRAME      = TEME
TIME_SYSTEM    = UTC
MEAN_ELEMENT_THEORY = SGP/SGP4

EPOCH          = 2026-02-21T19:07:14.579328
MEAN_MOTION    = 13.88871371
ECCENTRICITY   = .0049878
INCLINATION    = 97.2160
RA_OF_ASC_NODE = 357.4829
ARG_OF_PERICENTER = 122.2958
MEAN_ANOMALY   = 238.3051

EPHEMERIS_TYPE = 0
CLASSIFICATION_TYPE = U
NORAD_CAT_ID   = 59588
ELEMENT_SET_NO = 999
REV_AT_EPOCH   = 9199
BSTAR          = .10155E-1
MEAN_MOTION_DOT = .12388E-3
MEAN_MOTION_DDOT = 0

CCSDS_OMM_VERS = 2.0
CREATION_DATE  = 
ORIGINATOR     = 

OBJECT_NAME    = SZ-21 MODULE
OBJECT_ID      = 2025-246C
CENTER_NAME    = EARTH
REF_FRAME      = TEME
TIME_SYSTEM    = UTC
MEAN_ELEMENT_THEORY = SGP/SGP4

EPOCH          = 2026-02-21T18:24:38.284128
MEAN_MOTION    = 15.67250225
ECCENTRICITY   = .0001627
INCLINATION    = 41.4753
RA_OF_ASC_NODE = 301.2807
ARG_OF_PERICENTER = 294.0240
MEAN_ANOMALY   = 66.0431

EPHEMERIS_TYPE = 0
CLASSIFICATION_TYPE = U
NORAD_CAT_ID   = 66515
ELEMENT_SET_NO = 999
REV_AT_EPOCH   = 1557
BSTAR          = .29112E-3
MEAN_MOTION_DOT = .31998E-3
MEAN_MOTION_DDOT = 0

