CZ-2C R/B               
1 54039U 22132E   26052.47430348  .00044066  00000+0  53264-3 0  9991
2 54039  97.2965  55.3191 0020172 143.8618 216.4007 15.60343936187846
GSLV R/B                
1 54149U 22138AN  26052.74160092  .00003468  00000+0  30061-3 0  9996
2 54149  87.3881 171.6986 0020704 203.9815 156.0454 14.96643669181547
XRISM                   
1 57800U 23137A   26052.32821932  .00005513  00000+0  31376-3 0  9997
2 57800  31.0033  29.4689 0008268 236.1766 123.8086 15.11281678135316
ACS3                    
1 59588U 24077B   26052.79669652  .00012388  00000+0  10155-1 0  9994
2 59588  97.2160 357.4829 0049878 122.2958 238.3051 13.88871371 91992
SZ-21 MODULE            
1 66515U 25246C   26052.76710977  .00031998  00000+0  29112-3 0  9998
2 66515  41.4753 301.2807 0001627 294.0240  66.0431 15.67250225 15570
